QZS-1R                  
1 49336U 21096A   24281.78639889 -.00000197  00000+0  00000+0 0  9994
2 49336  36.1767  88.8231 0745537 270.0602  76.6030  1.00283982 10810
